{
  "type": "FeatureCollection",
  "features": [
    {
      "type": "Feature",
      "properties": {
        "norad_id": 66455,
        "name": "ATLAS 5 CENTAUR R/B",
        "group": "last-30-days",
        "lat": -2.9422761497996723,
        "lon": -96.09295122076745,
        "alt_km": 22218.14264512217,
        "timestamp": "2025-12-06T03:35:00.472806+00:00",
        "meta_object_name": "ATLAS 5 CENTAUR R/B",
        "meta_object_id": "2025-261B",
        "meta_epoch": "2025-12-04T21:50:26.208384",
        "meta_mean_motion": 2.2825938,
        "meta_eccentricity": 0.23296066,
        "meta_inclination": 6.156,
        "meta_ra_of_asc_node": 292.399,
        "meta_arg_of_pericenter": 184.9104,
        "meta_mean_anomaly": 190.8055,
        "meta_ephemeris_type": 0,
        "meta_classification_type": "U",
        "meta_norad_cat_id": 66455,
        "meta_element_set_no": 999,
        "meta_rev_at_epoch": 47,
        "meta_bstar": 0,
        "meta_mean_motion_dot": -6.1e-07,
        "meta_mean_motion_ddot": 0,
        "tle_line1": "1 66455U 25261B   25338.91002556 -.00000061  00000+0  00000+0 0  9997",
        "tle_line2": "2 66455   6.1560 292.3990 2329606 184.9104 190.8055  2.28259380   473"
      },
      "geometry": {
        "type": "Point",
        "coordinates": [
          -96.09295122076745,
          -2.9422761497996723
        ]
      }
    },
    {
      "type": "Feature",
      "properties": {
        "norad_id": 66456,
        "name": "STARLINK-35643",
        "group": "last-30-days",
        "lat": -34.15351820200958,
        "lon": -23.607316417237936,
        "alt_km": 420.5557912630338,
        "timestamp": "2025-12-06T03:35:00.472818+00:00",
        "meta_object_name": "STARLINK-35643",
        "meta_object_id": "2025-262A",
        "meta_epoch": "2025-12-05T06:00:02.000160",
        "meta_mean_motion": 15.51206593,
        "meta_eccentricity": 0.00011558,
        "meta_inclination": 43.0001,
        "meta_ra_of_asc_node": 114.9306,
        "meta_arg_of_pericenter": 270.0428,
        "meta_mean_anomaly": 340.2674,
        "meta_ephemeris_type": 0,
        "meta_classification_type": "U",
        "meta_norad_cat_id": 66456,
        "meta_element_set_no": 999,
        "meta_rev_at_epoch": 443,
        "meta_bstar": -0.016734312,
        "meta_mean_motion_dot": -0.00923174,
        "meta_mean_motion_ddot": 0,
        "tle_line1": "1 66456U 25262A   25339.25002315 -.00923174  00000+0 -16734-1 0  9993",
        "tle_line2": "2 66456  43.0001 114.9306 0001155 270.0428 340.2674 15.51206593  4430"
      },
      "geometry": {
        "type": "Point",
        "coordinates": [
          -23.607316417237936,
          -34.15351820200958
        ]
      }
    },
    {
      "type": "Feature",
      "properties": {
        "norad_id": 66457,
        "name": "STARLINK-35466",
        "group": "last-30-days",
        "lat": -35.868038435938146,
        "lon": -19.45080975448891,
        "alt_km": 420.6222845156426,
        "timestamp": "2025-12-06T03:35:00.472828+00:00",
        "meta_object_name": "STARLINK-35466",
        "meta_object_id": "2025-262B",
        "meta_epoch": "2025-12-05T06:00:02.000160",
        "meta_mean_motion": 15.51208081,
        "meta_eccentricity": 0.00012871,
        "meta_inclination": 43,
        "meta_ra_of_asc_node": 114.9209,
        "meta_arg_of_pericenter": 274.6886,
        "meta_mean_anomaly": 339.4579,
        "meta_ephemeris_type": 0,
        "meta_classification_type": "U",
        "meta_norad_cat_id": 66457,
        "meta_element_set_no": 999,
        "meta_rev_at_epoch": 443,
        "meta_bstar": -0.016830675,
        "meta_mean_motion_dot": -0.00928141,
        "meta_mean_motion_ddot": 0,
        "tle_line1": "1 66457U 25262B   25339.25002315 -.00928141  00000+0 -16831-1 0  9991",
        "tle_line2": "2 66457  43.0000 114.9209 0001287 274.6886 339.4579 15.51208081  4434"
      },
      "geometry": {
        "type": "Point",
        "coordinates": [
          -19.45080975448891,
          -35.868038435938146
        ]
      }
    },
    {
      "type": "Feature",
      "properties": {
        "norad_id": 66458,
        "name": "STARLINK-35684",
        "group": "last-30-days",
        "lat": -35.025861322656034,
        "lon": -21.55794773930439,
        "alt_km": 420.4959992753729,
        "timestamp": "2025-12-06T03:35:00.472838+00:00",
        "meta_object_name": "STARLINK-35684",
        "meta_object_id": "2025-262C",
        "meta_epoch": "2025-12-05T06:00:02.000160",
        "meta_mean_motion": 15.51211207,
        "meta_eccentricity": 0.00012891,
        "meta_inclination": 43.0001,
        "meta_ra_of_asc_node": 114.9254,
        "meta_arg_of_pericenter": 266.6576,
        "meta_mean_anomaly": 345.5692,
        "meta_ephemeris_type": 0,
        "meta_classification_type": "U",
        "meta_norad_cat_id": 66458,
        "meta_element_set_no": 999,
        "meta_rev_at_epoch": 443,
        "meta_bstar": -0.016889286,
        "meta_mean_motion_dot": -0.00931213,
        "meta_mean_motion_ddot": 0,
        "tle_line1": "1 66458U 25262C   25339.25002315 -.00931213  00000+0 -16889-1 0  9999",
        "tle_line2": "2 66458  43.0001 114.9254 0001289 266.6576 345.5692 15.51211207  4433"
      },
      "geometry": {
        "type": "Point",
        "coordinates": [
          -21.55794773930439,
          -35.025861322656034
        ]
      }
    },
    {
      "type": "Feature",
      "properties": {
        "norad_id": 66459,
        "name": "STARLINK-35449",
        "group": "last-30-days",
        "lat": -36.66999682396812,
        "lon": -17.30696868571812,
        "alt_km": 420.69439879866786,
        "timestamp": "2025-12-06T03:35:00.472849+00:00",
        "meta_object_name": "STARLINK-35449",
        "meta_object_id": "2025-262D",
        "meta_epoch": "2025-12-05T06:00:02.000160",
        "meta_mean_motion": 15.51210398,
        "meta_eccentricity": 0.00012475,
        "meta_inclination": 43,
        "meta_ra_of_asc_node": 114.9159,
        "meta_arg_of_pericenter": 275.8655,
        "meta_mean_anomaly": 340.198,
        "meta_ephemeris_type": 0,
        "meta_classification_type": "U",
        "meta_norad_cat_id": 66459,
        "meta_element_set_no": 999,
        "meta_rev_at_epoch": 443,
        "meta_bstar": -0.016908938,
        "meta_mean_motion_dot": -0.00932176,
        "meta_mean_motion_ddot": 0,
        "tle_line1": "1 66459U 25262D   25339.25002315 -.00932176  00000+0 -16909-1 0  9992",
        "tle_line2": "2 66459  43.0000 114.9159 0001247 275.8655 340.1980 15.51210398  4432"
      },
      "geometry": {
        "type": "Point",
        "coordinates": [
          -17.30696868571812,
          -36.66999682396812
        ]
      }
    },
    {
      "type": "Feature",
      "properties": {
        "norad_id": 66460,
        "name": "STARLINK-35424",
        "group": "last-30-days",
        "lat": -37.41593914506699,
        "lon": -15.168018836417355,
        "alt_km": 421.145131299435,
        "timestamp": "2025-12-06T03:35:00.472859+00:00",
        "meta_object_name": "STARLINK-35424",
        "meta_object_id": "2025-262E",
        "meta_epoch": "2025-12-05T06:00:02.000160",
        "meta_mean_motion": 15.51215751,
        "meta_eccentricity": 0.00010191,
        "meta_inclination": 43.0001,
        "meta_ra_of_asc_node": 114.9116,
        "meta_arg_of_pericenter": 291.0003,
        "meta_mean_anomaly": 326.9782,
        "meta_ephemeris_type": 0,
        "meta_classification_type": "U",
        "meta_norad_cat_id": 66460,
        "meta_element_set_no": 999,
        "meta_rev_at_epoch": 443,
        "meta_bstar": -0.017279042,
        "meta_mean_motion_dot": -0.00951041,
        "meta_mean_motion_ddot": 0,
        "tle_line1": "1 66460U 25262E   25339.25002315 -.00951041  00000+0 -17279-1 0  9997",
        "tle_line2": "2 66460  43.0001 114.9116 0001019 291.0003 326.9782 15.51215751  4432"
      },
      "geometry": {
        "type": "Point",
        "coordinates": [
          -15.168018836417355,
          -37.41593914506699
        ]
      }
    },
    {
      "type": "Feature",
      "properties": {
        "norad_id": 66461,
        "name": "STARLINK-35132",
        "group": "last-30-days",
        "lat": -38.15019453471419,
        "lon": -12.89818535748662,
        "alt_km": 420.99458277867234,
        "timestamp": "2025-12-06T03:35:00.472871+00:00",
        "meta_object_name": "STARLINK-35132",
        "meta_object_id": "2025-262F",
        "meta_epoch": "2025-12-05T06:00:02.000160",
        "meta_mean_motion": 15.51206195,
        "meta_eccentricity": 8.836e-05,
        "meta_inclination": 43.0001,
        "meta_ra_of_asc_node": 114.9067,
        "meta_arg_of_pericenter": 282.4655,
        "meta_mean_anomaly": 337.432,
        "meta_ephemeris_type": 0,
        "meta_classification_type": "U",
        "meta_norad_cat_id": 66461,
        "meta_element_set_no": 999,
        "meta_rev_at_epoch": 443,
        "meta_bstar": -0.016969448,
        "meta_mean_motion_dot": -0.0093504,
        "meta_mean_motion_ddot": 0,
        "tle_line1": "1 66461U 25262F   25339.25002315 -.00935040  00000+0 -16969-1 0  9994",
        "tle_line2": "2 66461  43.0001 114.9067 0000883 282.4655 337.4320 15.51206195  4430"
      },
      "geometry": {
        "type": "Point",
        "coordinates": [
          -12.89818535748662,
          -38.15019453471419
        ]
      }
    }
  ]
}